{"distinct": [{"__class__": "tuple", "__value__": [{"Name": "orlando nex main exchange", "Address": "7151 earhart dr", "City": "orlando", "State": "fl", "Zip": "328275000", "source": "pbna", "CISID": null, "COF": "128514.0"}, {"Name": "orlando mccoy st", "Address": "7151 earheart dr mccoy annex", "City": "orlando", "State": "fl", "Zip": "32827", "source": "flna", "CISID": "1245321.0", "COF": null}]}, {"__class__": "tuple", "__value__": [{"Name": "gas n shop", "Address": "2600 e international speedway blvd", "City": "deland", "State": "fl", "Zip": "327242706", "source": "pbna", "CISID": null, "COF": "83311.0"}, {"Name": "gas n shop 9", "Address": "2496 e international speedway blvd", "City": "deland", "State": "fl", "Zip": "327242745", "source": "flna", "CISID": "253455.0", "COF": null}]}, {"__class__": "tuple", "__value__": [{"Name": "welcome food store", "Address": "11405 san jose blvd", "City": "jacksonville", "State": "fl", "Zip": "322237234", "source": "pbna", "CISID": null, "COF": "2960818.0"}, {"Name": "welcome food store 05", "Address": "11531 san jose blvd ste 15", "City": "jacksonville", "State": "fl", "Zip": "322237911", "source": "pbna", "CISID": null, "COF": "7050398.0"}]}, {"__class__": "tuple", "__value__": [{"Name": "circle k 2723912", "Address": "9260 nw 39th ave", "City": "gainesville", "State": "fl", "Zip": "326067331", "source": "pbna", "CISID": null, "COF": "7187113.0"}, {"Name": "circle k 2726527", "Address": "9404 nw 39th ave", "City": "gainesville", "State": "fl", "Zip": "326067333", "source": "pbna", "CISID": null, "COF": "121507.0"}]}, {"__class__": "tuple", "__value__": [{"Name": "lake weir grocery", "Address": "13521 e highway 25", "City": "ocklawaha", "State": "fl", "Zip": "321791202", "source": "pbna", "CISID": null, "COF": "3604941.0"}, {"Name": "lake weir mobil", "Address": "13530 e highway 25", "City": "ocklawaha", "State": "fl", "Zip": "321791200", "source": "pbna", "CISID": null, "COF": "5403034.0"}]}, {"__class__": "tuple", "__value__": [{"Name": "amoco food shop 11", "Address": "2808 wilma rudolph blvd", "City": "clarksville", "State": "tn", "Zip": "370405032", "source": "flna", "CISID": "1075445.0", "COF": null}, {"Name": "amoco food shop 15", "Address": "2537 wilma rudolph blvd", "City": "clarksville", "State": "tn", "Zip": "370405844", "source": "flna", "CISID": "1650981.0", "COF": null}]}, {"__class__": "tuple", "__value__": [{"Name": "papa johns pizza 491", "Address": "812 n old dixie hwy", "City": "jupiter", "State": "fl", "Zip": "334584900", "source": "pbna", "CISID": null, "COF": "7782825.0"}, {"Name": "tapatia 3", "Address": "812 n old dixie hwy", "City": "jupiter", "State": "fl", "Zip": "334584900", "source": "flna", "CISID": "42242829.0", "COF": null}]}, {"__class__": "tuple", "__value__": [{"Name": "little greek fresh grill", "Address": "10801 starkey rd", "City": "seminole", "State": "fl", "Zip": "337771159", "source": "pbna", "CISID": null, "COF": "3632523.0"}, {"Name": "publix 0095", "Address": "10801 starkey rd", "City": "largo", "State": "fl", "Zip": "337771159", "source": "pbna", "CISID": null, "COF": "100008.0"}]}, {"__class__": "tuple", "__value__": [{"Name": "kelly 6", "Address": "18870 blue star hwy", "City": "quincy", "State": "fl", "Zip": "323515163", "source": "flna", "CISID": "42163148.0", "COF": null}, {"Name": "dollar general 13434", "Address": "18898 blue star hwy", "City": "quincy", "State": "fl", "Zip": "323515163", "source": "flna", "CISID": "42018433.0", "COF": null}]}, {"__class__": "tuple", "__value__": [{"Name": "loris gifts 72", "Address": "5301 s congress ave", "City": "atlantis", "State": "fl", "Zip": "334621149", "source": "pbna", "CISID": null, "COF": "3816054.0"}, {"Name": "healthtrusthca jfk hospital starbu", "Address": "5301 s congress ave", "City": "atlantis", "State": "fl", "Zip": "334621149", "source": "pbna", "CISID": null, "COF": "3839795.0"}]}, {"__class__": "tuple", "__value__": [{"Name": "shell oakland hiatus", "Address": "3411 n hiatus rd", "City": "sunrise", "State": "fl", "Zip": "333517502", "source": "pbna", "CISID": null, "COF": "9888660.0"}, {"Name": "rm oil inc", "Address": "3411 n hiatus rd", "City": "sunrise", "State": "fl", "Zip": "333517502", "source": "flna", "CISID": "42303722.0", "COF": null}]}, {"__class__": "tuple", "__value__": [{"Name": "darryl bensinger", "Address": "20625 us highway 441", "City": "mount dora", "State": "fl", "Zip": "327579222", "source": "pbna", "CISID": null, "COF": "128908.0"}, {"Name": "reningers flea market/ 3 boys deli", "Address": "20625 us highway 441", "City": "mount dora", "State": "fl", "Zip": "327579222", "source": "pbna", "CISID": null, "COF": "7345568.0"}]}, {"__class__": "tuple", "__value__": [{"Name": "sanibel service center", "Address": "1015 periwinkle way", "City": "sanibel", "State": "fl", "Zip": "339576914", "source": "pbna", "CISID": null, "COF": "5402838.0"}, {"Name": "chevron", "Address": "1015 periwinkle way", "City": "sanibel", "State": "fl", "Zip": "339576914", "source": "flna", "CISID": "1758377.0", "COF": null}]}, {"__class__": "tuple", "__value__": [{"Name": "san carlos liquors", "Address": "18911 s tamiami trl", "City": "fort myers", "State": "fl", "Zip": "339084734", "source": "pbna", "CISID": null, "COF": "103769.0"}, {"Name": "cvs 3349", "Address": "18911 s tamiami trl", "City": "fort myers", "State": "fl", "Zip": "339084734", "source": "flna", "CISID": "31713.0", "COF": null}]}, {"__class__": "tuple", "__value__": [{"Name": "citgo of palmetto", "Address": "203 10th st w", "City": "palmetto", "State": "fl", "Zip": "342213941", "source": "pbna", "CISID": null, "COF": "9584317.0"}, {"Name": "payless", "Address": "203 10th st w", "City": "palmetto", "State": "fl", "Zip": "342213941", "source": "flna", "CISID": "1844325.0", "COF": null}]}, {"__class__": "tuple", "__value__": [{"Name": "gibsonton mart inc", "Address": "11005 s us highway 41", "City": "gibsonton", "State": "fl", "Zip": "335344714", "source": "flna", "CISID": "42167115.0", "COF": null}, {"Name": "gibsonton mobil", "Address": "10920 s us highway 41", "City": "gibsonton", "State": "fl", "Zip": "335344710", "source": "flna", "CISID": "42042089.0", "COF": null}]}, {"__class__": "tuple", "__value__": [{"Name": "sunoco", "Address": "750 w lake mary blvd", "City": "sanford", "State": "fl", "Zip": "327735933", "source": "pbna", "CISID": null, "COF": "5412698.0"}, {"Name": "sunoco", "Address": "750 w lake mary blvd", "City": "lake mary", "State": "fl", "Zip": "32746", "source": "flna", "CISID": "2146857.0", "COF": null}]}, {"__class__": "tuple", "__value__": [{"Name": "westshore pizza 4th street", "Address": "212 37th ave n", "City": "saint petersburg", "State": "fl", "Zip": "337041416", "source": "pbna", "CISID": null, "COF": "3854097.0"}, {"Name": "cvs 149", "Address": "294 37th ave n", "City": "st petersburg", "State": "fl", "Zip": "337041416", "source": "flna", "CISID": "31598.0", "COF": null}]}, {"__class__": "tuple", "__value__": [{"Name": "limburgo llc", "Address": "2520 broadway", "City": "riviera beach", "State": "fl", "Zip": "334044535", "source": "pbna", "CISID": null, "COF": "3716434.0"}, {"Name": "riviera beach bp(riv", "Address": "2520 broadway", "City": "riviera beach", "State": "fl", "Zip": "334044535", "source": "flna", "CISID": "1023670.0", "COF": null}]}, {"__class__": "tuple", "__value__": [{"Name": "mobil", "Address": "7225 atlantic ave", "City": "delray beach", "State": "fl", "Zip": "334461305", "source": "pbna", "CISID": null, "COF": "9350728.0"}, {"Name": "atlantic pet.", "Address": "7225 atlantic ave", "City": "delray beach", "State": "fl", "Zip": "334461305", "source": "flna", "CISID": "42012739.0", "COF": null}]}, {"__class__": "tuple", "__value__": [{"Name": "aaa fort pierce petroleum llc", "Address": "3030 s 25th st", "City": "fort pierce", "State": "fl", "Zip": "349815258", "source": "pbna", "CISID": null, "COF": "3778911.0"}, {"Name": "marathon mart", "Address": "3030 s 25th st", "City": "fort pierce", "State": "fl", "Zip": "349815258", "source": "flna", "CISID": "42292378.0", "COF": null}]}, {"__class__": "tuple", "__value__": [{"Name": "fidalgo auto center inc", "Address": "2501 nw 42nd ave", "City": "miami", "State": "fl", "Zip": "331426745", "source": "pbna", "CISID": null, "COF": "2001171.0"}, {"Name": "chevron", "Address": "2545 nw 42nd ave", "City": "miami", "State": "fl", "Zip": "331426745", "source": "pbna", "CISID": null, "COF": "7321900.0"}]}, {"__class__": "tuple", "__value__": [{"Name": "marathon", "Address": "6921 nw 88th ave", "City": "tamarac", "State": "fl", "Zip": "333213221", "source": "pbna", "CISID": null, "COF": "3808273.0"}, {"Name": "lush enterprises llc", "Address": "6921 nw 88th ave", "City": "tamarac", "State": "fl", "Zip": "333213221", "source": "flna", "CISID": "42307450.0", "COF": null}]}, {"__class__": "tuple", "__value__": [{"Name": "jeet enterprises llc", "Address": "1211 nw 10th st", "City": "ocala", "State": "fl", "Zip": "344755436", "source": "pbna", "CISID": null, "COF": "7177183.0"}, {"Name": "spur gas", "Address": "1211 nw 10th st", "City": "ocala", "State": "fl", "Zip": "344755436", "source": "flna", "CISID": "1133378.0", "COF": null}]}, {"__class__": "tuple", "__value__": [{"Name": "34th food mart", "Address": "1266 34th st n", "City": "saint petersburg", "State": "fl", "Zip": "337135434", "source": "pbna", "CISID": null, "COF": "3820960.0"}, {"Name": "go mart", "Address": "1266 34th st n", "City": "saint petersburg", "State": "fl", "Zip": "337135434", "source": "flna", "CISID": "42329155.0", "COF": null}]}, {"__class__": "tuple", "__value__": [{"Name": "florida convenience store 495", "Address": "300 n kirkman rd", "City": "orlando", "State": "fl", "Zip": "328111104", "source": "pbna", "CISID": null, "COF": "3802381.0"}, {"Name": "townstar 495", "Address": "300 n kirkman rd", "City": "orlando", "State": "fl", "Zip": "328111104", "source": "flna", "CISID": "42148557.0", "COF": null}]}, {"__class__": "tuple", "__value__": [{"Name": "racetrac 2365", "Address": "3010 pine island road", "City": "north fort myers", "State": "fl", "Zip": "33903", "source": "pbna", "CISID": null, "COF": "3446683.0"}, {"Name": "racetrac 2327", "Address": "16900 north tamiami trail", "City": "north fort myers", "State": "fl", "Zip": "33903", "source": "pbna", "CISID": null, "COF": "3669346.0"}]}, {"__class__": "tuple", "__value__": [{"Name": "family dollar 10340", "Address": "790 south bridge street", "City": "labelle", "State": "fl", "Zip": "33935", "source": "pbna", "CISID": null, "COF": "3375565.0"}, {"Name": "family dollar 2420", "Address": "250 w hickpochee ave", "City": "labelle", "State": "fl", "Zip": "33935", "source": "flna", "CISID": "1993055.0", "COF": null}]}, {"__class__": "tuple", "__value__": [{"Name": "circle k 2726219", "Address": "207 sr 17", "City": "lake hamilton", "State": "fl", "Zip": "338510000", "source": "pbna", "CISID": null, "COF": "78416.0"}, {"Name": "circle k 2726219", "Address": "1339 hwy 27a", "City": "lake hamilton", "State": "fl", "Zip": "33851", "source": "flna", "CISID": "42165173.0", "COF": null}]}, {"__class__": "tuple", "__value__": [{"Name": "asu food mart", "Address": "9347 dr martin luther king jr st n", "City": "st petersburg", "State": "fl", "Zip": "337023051", "source": "pbna", "CISID": null, "COF": "9820098.0"}, {"Name": "hasu ii", "Address": "9347 dr martin luther king jr st n", "City": "saint petersburg", "State": "fl", "Zip": "337023051", "source": "flna", "CISID": "2484836.0", "COF": null}]}, {"__class__": "tuple", "__value__": [{"Name": "family dollar 10441", "Address": "1210 s 25th street", "City": "fort pierce", "State": "fl", "Zip": "34950", "source": "pbna", "CISID": null, "COF": "3622703.0"}, {"Name": "family dollar 4044", "Address": "2437 s us hwy 1", "City": "fort pierce", "State": "fl", "Zip": "34950", "source": "flna", "CISID": "1991572.0", "COF": null}]}, {"__class__": "tuple", "__value__": [{"Name": "dollar general", "Address": "800 fort smith blvd", "City": "deltona", "State": "fl", "Zip": "32725", "source": "pbna", "CISID": null, "COF": "3863081.0"}, {"Name": "dollar general 13717", "Address": "324 stratford commons", "City": "deltona", "State": "fl", "Zip": "32725", "source": "pbna", "CISID": null, "COF": "9835744.0"}]}, {"__class__": "tuple", "__value__": [{"Name": "wana foods", "Address": "2800 nw 21st ave", "City": "oakland park", "State": "fl", "Zip": "333112120", "source": "pbna", "CISID": null, "COF": "9598249.0"}, {"Name": "samer food mkt", "Address": "2800 nw 21st ave", "City": "ft lauderdale", "State": "fl", "Zip": "333112120", "source": "flna", "CISID": "1193879.0", "COF": null}]}, {"__class__": "tuple", "__value__": [{"Name": "whaam", "Address": "400 s ocean shore blvd", "City": "flagler beach", "State": "fl", "Zip": "321363663", "source": "pbna", "CISID": null, "COF": "3673991.0"}, {"Name": "7-eleven 35479", "Address": "408 s ocean shore blvd", "City": "flagler beach", "State": "fl", "Zip": "321363663", "source": "flna", "CISID": "42000309.0", "COF": null}]}, {"__class__": "tuple", "__value__": [{"Name": "salsa fiesta miami lakes", "Address": "6769 main st", "City": "miami lakes", "State": "fl", "Zip": "330142071", "source": "pbna", "CISID": null, "COF": "3433851.0"}, {"Name": "pizza scene", "Address": "6725 main st", "City": "miami lakes", "State": "fl", "Zip": "330142071", "source": "pbna", "CISID": null, "COF": "7324922.0"}]}, {"__class__": "tuple", "__value__": [{"Name": "lucas italian-american restaurant", "Address": "1339 blanding blvd ste 8", "City": "orange park", "State": "fl", "Zip": "320657326", "source": "pbna", "CISID": null, "COF": "9552964.0"}, {"Name": "one stop liquor 2", "Address": "1339 blanding blvd ste 2", "City": "orange park", "State": "fl", "Zip": "320657326", "source": "pbna", "CISID": null, "COF": "3516240.0"}]}, {"__class__": "tuple", "__value__": [{"Name": "follett uf health science bookstore", "Address": "1600 sw archer rd", "City": "gainesville", "State": "fl", "Zip": "326103003", "source": "pbna", "CISID": null, "COF": "7078321.0"}, {"Name": "shands uf wendys", "Address": "1600 sw archer rd", "City": "gainesville", "State": "fl", "Zip": "326113003", "source": "pbna", "CISID": null, "COF": "7081638.0"}]}, {"__class__": "tuple", "__value__": [{"Name": "kroger 436", "Address": "5341 highway 20 s", "City": "covington", "State": "ga", "Zip": "300164409", "source": "flna", "CISID": "1487962.0", "COF": null}, {"Name": "dollar general 4808", "Address": "5321 highway 20 s", "City": "covington", "State": "ga", "Zip": "300164409", "source": "flna", "CISID": "1802866.0", "COF": null}]}, {"__class__": "tuple", "__value__": [{"Name": "all me laundry inc", "Address": "1904 lake worth rd", "City": "lake worth beach", "State": "fl", "Zip": "334614228", "source": "pbna", "CISID": null, "COF": "9942704.0"}, {"Name": "sunoco", "Address": "1950 lake worth rd", "City": "lake worth beach", "State": "fl", "Zip": "334614228", "source": "flna", "CISID": "42002230.0", "COF": null}]}, {"__class__": "tuple", "__value__": [{"Name": "speedway 6590", "Address": "700 w new haven ave", "City": "melbourne", "State": "fl", "Zip": "329014211", "source": "pbna", "CISID": null, "COF": "3446053.0"}, {"Name": "apec 6590", "Address": "700 w new haven ave", "City": "melbourne", "State": "fl", "Zip": "329014211", "source": "pbna", "CISID": null, "COF": "3894948.0"}]}, {"__class__": "tuple", "__value__": [{"Name": "publix 0215", "Address": "4711 babcock st ne", "City": "palm bay", "State": "fl", "Zip": "329052805", "source": "pbna", "CISID": null, "COF": "77606.0"}, {"Name": "dollar general 8401", "Address": "4711 babcock st ne", "City": "palm bay", "State": "fl", "Zip": "329052805", "source": "flna", "CISID": "1863800.0", "COF": null}]}, {"__class__": "tuple", "__value__": [{"Name": "mahad enterprise inc", "Address": "1326 n military trl", "City": "west palm beach", "State": "fl", "Zip": "334096017", "source": "pbna", "CISID": null, "COF": "3695297.0"}, {"Name": "orion mart", "Address": "1326 n military trl", "City": "west palm beach", "State": "fl", "Zip": "334096017", "source": "flna", "CISID": "42247126.0", "COF": null}]}, {"__class__": "tuple", "__value__": [{"Name": "west hillsborough shell", "Address": "6901 w hillsborough ave", "City": "tampa", "State": "fl", "Zip": "336344945", "source": "pbna", "CISID": null, "COF": "9636940.0"}, {"Name": "mohawk shell", "Address": "6901 w hillsborough ave", "City": "tampa", "State": "fl", "Zip": "336344945", "source": "flna", "CISID": "2212294.0", "COF": null}]}, {"__class__": "tuple", "__value__": [{"Name": "jewel foodmart inc", "Address": "8300 w mcnab rd", "City": "north lauderdale", "State": "fl", "Zip": "330684165", "source": "pbna", "CISID": null, "COF": "3893929.0"}, {"Name": "marathon", "Address": "8300 w mcnab rd", "City": "north lauderdale", "State": "fl", "Zip": "330684165", "source": "flna", "CISID": "42342266.0", "COF": null}]}, {"__class__": "tuple", "__value__": [{"Name": "lm petroleum", "Address": "1201 royal palm beach blvd", "City": "royal palm beach", "State": "fl", "Zip": "334111637", "source": "pbna", "CISID": null, "COF": "3869723.0"}, {"Name": "exxon", "Address": "1201 royal palm beach blvd", "City": "royal palm beach", "State": "fl", "Zip": "334111637", "source": "flna", "CISID": "42062542.0", "COF": null}]}, {"__class__": "tuple", "__value__": [{"Name": "southern express", "Address": "22258 ne state road 20", "City": "hosford", "State": "fl", "Zip": "32334", "source": "flna", "CISID": "1456000.0", "COF": null}, {"Name": "southern express", "Address": "10694 nw state road 20", "City": "bristol", "State": "fl", "Zip": "323213440", "source": "flna", "CISID": "1120114.0", "COF": null}]}, {"__class__": "tuple", "__value__": [{"Name": "walgreens 05947", "Address": "3027 us hwy 27", "City": "sebring", "State": "fl", "Zip": "338701630", "source": "pbna", "CISID": null, "COF": "5401096.0"}, {"Name": "walgreens", "Address": "3619 us highway 27 n", "City": "sebring", "State": "fl", "Zip": "338701642", "source": "flna", "CISID": "2223117.0", "COF": null}]}, {"__class__": "tuple", "__value__": [{"Name": "bp amoco", "Address": "2755 nw 119th st", "City": "miami", "State": "fl", "Zip": "331672501", "source": "pbna", "CISID": null, "COF": "7325944.0"}, {"Name": "bp amoco", "Address": "13681 sw 152th st", "City": "miami", "State": "fl", "Zip": "33196", "source": "pbna", "CISID": null, "COF": "7657521.0"}]}, {"__class__": "tuple", "__value__": [{"Name": "chevron", "Address": "5420 n university dr", "City": "coral springs", "State": "fl", "Zip": "330674603", "source": "pbna", "CISID": null, "COF": "3392674.0"}, {"Name": "chevron", "Address": "3100 s university dr", "City": "miramar", "State": "fl", "Zip": "330253000", "source": "flna", "CISID": "2490726.0", "COF": null}]}, {"__class__": "tuple", "__value__": [{"Name": "dollar general 01375", "Address": "637 us highway 17 92 w", "City": "haines city", "State": "fl", "Zip": "338445047", "source": "pbna", "CISID": null, "COF": "5421085.0"}, {"Name": "publix 1076", "Address": "617 us highway 17 92 w", "City": "haines city", "State": "fl", "Zip": "338445047", "source": "pbna", "CISID": null, "COF": "5426379.0"}]}, {"__class__": "tuple", "__value__": [{"Name": "chevron", "Address": "5420 n university dr", "City": "coral springs", "State": "fl", "Zip": "330674603", "source": "pbna", "CISID": null, "COF": "3392674.0"}, {"Name": "walgreens 3933", "Address": "5480 n university dr", "City": "coral springs", "State": "fl", "Zip": "330674603", "source": "pbna", "CISID": null, "COF": "9350005.0"}]}, {"__class__": "tuple", "__value__": [{"Name": "caban investments", "Address": "901 s 22nd st", "City": "tampa", "State": "fl", "Zip": "336056321", "source": "pbna", "CISID": null, "COF": "9757338.0"}, {"Name": "stop pick", "Address": "901 s 22nd st", "City": "tampa", "State": "fl", "Zip": "336056321", "source": "flna", "CISID": "2484838.0", "COF": null}]}, {"__class__": "tuple", "__value__": [{"Name": "mobil (jacaranda)(ib", "Address": "10261 w broward blvd", "City": "plantation", "State": "fl", "Zip": "333242114", "source": "flna", "CISID": "1351148.0", "COF": null}, {"Name": "cvs 5079", "Address": "10241 w broward blvd", "City": "plantation", "State": "fl", "Zip": "333242114", "source": "flna", "CISID": "1387347.0", "COF": null}]}, {"__class__": "tuple", "__value__": [{"Name": "super stop", "Address": "4016 10th ave n", "City": "lake worth", "State": "fl", "Zip": "334612307", "source": "pbna", "CISID": null, "COF": "3671866.0"}, {"Name": "gamarra food market", "Address": "4016 10th ave n", "City": "lake worth", "State": "fl", "Zip": "334612307", "source": "flna", "CISID": "42280021.0", "COF": null}]}, {"__class__": "tuple", "__value__": [{"Name": "sunoco gas", "Address": "800 s walnut st", "City": "starke", "State": "fl", "Zip": "320914402", "source": "pbna", "CISID": null, "COF": "3760790.0"}, {"Name": "stark food and fuel", "Address": "800 s walnut st", "City": "starke", "State": "fl", "Zip": "320914402", "source": "pbna", "CISID": null, "COF": "3894096.0"}]}, {"__class__": "tuple", "__value__": [{"Name": "cvs 4694", "Address": "425 sigman rd nw", "City": "conyers", "State": "ga", "Zip": "300123635", "source": "flna", "CISID": "257056.0", "COF": null}, {"Name": "family dollar 8496", "Address": "425 sigman rd nw", "City": "conyers", "State": "ga", "Zip": "300123635", "source": "flna", "CISID": "2491724.0", "COF": null}]}, {"__class__": "tuple", "__value__": [{"Name": "cvs 4465", "Address": "395 e burleigh blvd", "City": "tavares", "State": "fl", "Zip": "327782201", "source": "flna", "CISID": "836893.0", "COF": null}, {"Name": "dollar general 116", "Address": "395 e burleigh blvd", "City": "tavares", "State": "fl", "Zip": "327782201", "source": "flna", "CISID": "1711721.0", "COF": null}]}, {"__class__": "tuple", "__value__": [{"Name": "delicias latina-chill", "Address": "1217 airport rd s", "City": "naples", "State": "fl", "Zip": "341044816", "source": "pbna", "CISID": null, "COF": "7792537.0"}, {"Name": "flamingo", "Address": "1261 airport rd s", "City": "naples", "State": "fl", "Zip": "341044816", "source": "pbna", "CISID": null, "COF": "3644451.0"}]}, {"__class__": "tuple", "__value__": [{"Name": "happy/7", "Address": "4901 lillian hwy", "City": "pensacola", "State": "fl", "Zip": "325066410", "source": "flna", "CISID": "878389.0", "COF": null}, {"Name": "dollar general 12631", "Address": "4923 lillian hwy", "City": "pensacola", "State": "fl", "Zip": "325066410", "source": "flna", "CISID": "2511375.0", "COF": null}]}, {"__class__": "tuple", "__value__": [{"Name": "vito michaels gourmet pizza", "Address": "7704 blind pass rd", "City": "st pete beach", "State": "fl", "Zip": "337061727", "source": "pbna", "CISID": null, "COF": "9633827.0"}, {"Name": "super 7 llc", "Address": "7700 blind pass rd", "City": "st pete beach", "State": "fl", "Zip": "337061727", "source": "pbna", "CISID": null, "COF": "3890926.0"}]}, {"__class__": "tuple", "__value__": [{"Name": "little caesars 1516-0005", "Address": "12975 collier blvd ste 103", "City": "naples", "State": "fl", "Zip": "341164004", "source": "pbna", "CISID": null, "COF": "3346296.0"}, {"Name": "publix 1208", "Address": "12975 collier blvd ste 200", "City": "naples", "State": "fl", "Zip": "341164004", "source": "flna", "CISID": "2445961.0", "COF": null}]}, {"__class__": "tuple", "__value__": [{"Name": "super k", "Address": "7160 airport blvd", "City": "mobile", "State": "al", "Zip": "366084556", "source": "flna", "CISID": "1946376.0", "COF": null}, {"Name": "dollar general 6940", "Address": "7156b airport blvd", "City": "mobile", "State": "al", "Zip": "366084556", "source": "flna", "CISID": "2177110.0", "COF": null}]}, {"__class__": "tuple", "__value__": [{"Name": "citgo", "Address": "2132 n andrews ave", "City": "wilton manors", "State": "fl", "Zip": "333113921", "source": "pbna", "CISID": null, "COF": "3334903.0"}, {"Name": "mtmk o1 llc", "Address": "2132 n andrews ave", "City": "wilton manors", "State": "fl", "Zip": "333113921", "source": "flna", "CISID": "42207882.0", "COF": null}]}, {"__class__": "tuple", "__value__": [{"Name": "little caesars 1632-0649", "Address": "1204 county road 1", "City": "dunedin", "State": "fl", "Zip": "346984610", "source": "pbna", "CISID": null, "COF": "3459723.0"}, {"Name": "cvs 03228", "Address": "1298 county road 1", "City": "dunedin", "State": "fl", "Zip": "346984610", "source": "pbna", "CISID": null, "COF": "5698992.0"}]}, {"__class__": "tuple", "__value__": [{"Name": "caraf oil", "Address": "2522 ne 2nd ave", "City": "miami", "State": "fl", "Zip": "331374404", "source": "pbna", "CISID": null, "COF": "9659543.0"}, {"Name": "stop and save food market", "Address": "2500 ne 2nd ave", "City": "miami", "State": "fl", "Zip": "331374404", "source": "pbna", "CISID": null, "COF": "3497596.0"}]}, {"__class__": "tuple", "__value__": [{"Name": "dollar tree 6045", "Address": "10153 w oakland park blvd", "City": "sunrise", "State": "fl", "Zip": "333516918", "source": "pbna", "CISID": null, "COF": "3492284.0"}, {"Name": "publix 239", "Address": "10155 w oakland park blvd", "City": "sunrise", "State": "fl", "Zip": "333516918", "source": "flna", "CISID": "157634.0", "COF": null}]}, {"__class__": "tuple", "__value__": [{"Name": "ali baba food mart", "Address": "10002 n 30th st", "City": "tampa", "State": "fl", "Zip": "336126454", "source": "pbna", "CISID": null, "COF": "7325927.0"}, {"Name": "poinsettia", "Address": "10002 n 30th st", "City": "tampa", "State": "fl", "Zip": "336126454", "source": "flna", "CISID": "42343156.0", "COF": null}]}, {"__class__": "tuple", "__value__": [{"Name": "publix 0701", "Address": "4065 hancock bridge pkwy", "City": "no fort myers", "State": "fl", "Zip": "339034294", "source": "pbna", "CISID": null, "COF": "2987781.0"}, {"Name": "dollar general 05723", "Address": "4045 hancock bridge pkwy", "City": "north fort myers", "State": "fl", "Zip": "339034294", "source": "pbna", "CISID": null, "COF": "5699093.0"}]}, {"__class__": "tuple", "__value__": [{"Name": "papa johns pizza 1738", "Address": "7965 n wickham rd", "City": "melbourne", "State": "fl", "Zip": "329408243", "source": "pbna", "CISID": null, "COF": "7782673.0"}, {"Name": "cvs 04999", "Address": "7975 n wickham rd", "City": "melbourne", "State": "fl", "Zip": "329408243", "source": "pbna", "CISID": null, "COF": "5415503.0"}]}, {"__class__": "tuple", "__value__": [{"Name": "morrison shands uf heart", "Address": "1505 sw archer rd", "City": "gainesville", "State": "fl", "Zip": "326081134", "source": "pbna", "CISID": null, "COF": "3695295.0"}, {"Name": "shands uf cancer loris giftshop 431", "Address": "1515 sw archer rd", "City": "gainesville", "State": "fl", "Zip": "326081134", "source": "pbna", "CISID": null, "COF": "9948974.0"}]}, {"__class__": "tuple", "__value__": [{"Name": "karla bakery kendall", "Address": "2408 sw 137th ave", "City": "miami", "State": "fl", "Zip": "331756311", "source": "pbna", "CISID": null, "COF": "3847346.0"}, {"Name": "los verdes kendall", "Address": "2426 sw 137th ave", "City": "miami", "State": "fl", "Zip": "331756311", "source": "pbna", "CISID": null, "COF": "3868063.0"}]}, {"__class__": "tuple", "__value__": [{"Name": "yacht chandlers", "Address": "750 w sunrise blvd", "City": "fort lauderdale", "State": "fl", "Zip": "333117238", "source": "pbna", "CISID": null, "COF": "3670571.0"}, {"Name": "amoco bp", "Address": "700 w sunrise blvd", "City": "fort lauderdale", "State": "fl", "Zip": "333117238", "source": "flna", "CISID": "2294045.0", "COF": null}]}, {"__class__": "tuple", "__value__": [{"Name": "toojays deli plantation", "Address": "801 s university dr", "City": "plantation", "State": "fl", "Zip": "333243336", "source": "pbna", "CISID": null, "COF": "3891967.0"}, {"Name": "jo-ann fabrics", "Address": "801 s university dr ste 75", "City": "plantation", "State": "fl", "Zip": "333243336", "source": "pbna", "CISID": null, "COF": "3686653.0"}]}, {"__class__": "tuple", "__value__": [{"Name": "dollar tree 6371", "Address": "7300 w mcnab rd", "City": "north lauderdale", "State": "fl", "Zip": "330685481", "source": "flna", "CISID": "42246991.0", "COF": null}, {"Name": "walmart sc 1851", "Address": "7300 w mcnab rd", "City": "north lauderdale", "State": "fl", "Zip": "330685481", "source": "flna", "CISID": "1249583.0", "COF": null}]}, {"__class__": "tuple", "__value__": [{"Name": "china wok", "Address": "9340 sw 56th st", "City": "miami", "State": "fl", "Zip": "331656529", "source": "pbna", "CISID": null, "COF": "3441392.0"}, {"Name": "little caesars 0001-2226", "Address": "9362 sw 56th st", "City": "miami", "State": "fl", "Zip": "331656529", "source": "pbna", "CISID": null, "COF": "7184523.0"}]}, {"__class__": "tuple", "__value__": [{"Name": "little caesars 0001-2303", "Address": "2303 n state road 7", "City": "hollywood", "State": "fl", "Zip": "330213203", "source": "pbna", "CISID": null, "COF": "9753339.0"}, {"Name": "sedanos 24", "Address": "2319 n state road 7", "City": "hollywood", "State": "fl", "Zip": "330213203", "source": "flna", "CISID": "1381942.0", "COF": null}]}, {"__class__": "tuple", "__value__": [{"Name": "sandlake food mart", "Address": "7331 w sand lake rd", "City": "orlando", "State": "fl", "Zip": "328195263", "source": "pbna", "CISID": null, "COF": "3876533.0"}, {"Name": "ziane llc", "Address": "7331 w sand lake rd", "City": "orlando", "State": "fl", "Zip": "328195263", "source": "flna", "CISID": "42348475.0", "COF": null}]}, {"__class__": "tuple", "__value__": [{"Name": "express mkt", "Address": "1415 dr martin luther king way", "City": "sarasota", "State": "fl", "Zip": "342347405", "source": "pbna", "CISID": null, "COF": "3644434.0"}, {"Name": "central mlk, inc", "Address": "1415 dr martin luther king way", "City": "sarasota", "State": "fl", "Zip": "342347405", "source": "flna", "CISID": "42216781.0", "COF": null}]}, {"__class__": "tuple", "__value__": [{"Name": "walmart nm 28-2396", "Address": "12700 s military trl", "City": "boynton beach", "State": "fl", "Zip": "334366139", "source": "pbna", "CISID": null, "COF": "3457449.0"}, {"Name": "cvs 4785", "Address": "12750 s military trl", "City": "boynton beach", "State": "fl", "Zip": "334366139", "source": "flna", "CISID": "2101877.0", "COF": null}]}, {"__class__": "tuple", "__value__": [{"Name": "cvs 5783", "Address": "8603 w hillsborough ave", "City": "tampa", "State": "fl", "Zip": "336153810", "source": "pbna", "CISID": null, "COF": "9553142.0"}, {"Name": "dollar general 7818", "Address": "8615 w hillsborough ave", "City": "tampa", "State": "fl", "Zip": "336153810", "source": "flna", "CISID": "1701813.0", "COF": null}]}, {"__class__": "tuple", "__value__": [{"Name": "publix 0264", "Address": "1880 us highway 1", "City": "rockledge", "State": "fl", "Zip": "329552822", "source": "pbna", "CISID": null, "COF": "78233.0"}, {"Name": "dollar tree 3592", "Address": "1880 us highway 1", "City": "rockledge", "State": "fl", "Zip": "329552822", "source": "flna", "CISID": "2252509.0", "COF": null}]}, {"__class__": "tuple", "__value__": [{"Name": "publix 0239", "Address": "10155 w oakland park blvd", "City": "sunrise", "State": "fl", "Zip": "333516918", "source": "pbna", "CISID": null, "COF": "9355728.0"}, {"Name": "dollar tree 6045", "Address": "10155 w oakland park blvd", "City": "sunrise", "State": "fl", "Zip": "333516918", "source": "flna", "CISID": "42174317.0", "COF": null}]}, {"__class__": "tuple", "__value__": [{"Name": "lelulos pizza", "Address": "3123 chiquita blvd s", "City": "cape coral", "State": "fl", "Zip": "339144266", "source": "pbna", "CISID": null, "COF": "3605867.0"}, {"Name": "dollar general 12988", "Address": "3123 chiquita blvd s", "City": "cape coral", "State": "fl", "Zip": "339144266", "source": "flna", "CISID": "2530070.0", "COF": null}]}, {"__class__": "tuple", "__value__": [{"Name": "papa johns pizza 2420", "Address": "6747 us highway 98 n", "City": "lakeland", "State": "fl", "Zip": "338096226", "source": "pbna", "CISID": null, "COF": "7782797.0"}, {"Name": "publix 1410", "Address": "6767 us highway 98 n", "City": "lakeland", "State": "fl", "Zip": "338096226", "source": "flna", "CISID": "42044107.0", "COF": null}]}, {"__class__": "tuple", "__value__": [{"Name": "rural king 70 bonita springs", "Address": "26831 s tamiami trl", "City": "bonita springs", "State": "fl", "Zip": "341347823", "source": "pbna", "CISID": null, "COF": "3378523.0"}, {"Name": "ristorante enrico", "Address": "26831 s tamiami trl", "City": "bonita springs", "State": "fl", "Zip": "341347823", "source": "pbna", "CISID": null, "COF": "7325151.0"}]}, {"__class__": "tuple", "__value__": [{"Name": "texaco", "Address": "124 main st", "City": "jersey", "State": "ga", "Zip": "30018", "source": "flna", "CISID": "794512.0", "COF": null}, {"Name": "texaco", "Address": "1085 irwin bridge rd nw", "City": "conyers", "State": "ga", "Zip": "300124301", "source": "flna", "CISID": "1940074.0", "COF": null}]}, {"__class__": "tuple", "__value__": [{"Name": "mapco express 3403", "Address": "590 donelson pike", "City": "nashville", "State": "tn", "Zip": "372143731", "source": "flna", "CISID": "982091.0", "COF": null}, {"Name": "tse 8801", "Address": "580 donelson pike", "City": "nashville", "State": "tn", "Zip": "372143731", "source": "flna", "CISID": "1681701.0", "COF": null}]}, {"__class__": "tuple", "__value__": [{"Name": "eagle food mart", "Address": "627 n dixie hwy", "City": "lake worth", "State": "fl", "Zip": "334603041", "source": "pbna", "CISID": null, "COF": "9948305.0"}, {"Name": "metro gas", "Address": "627 n dixie hwy", "City": "lake worth", "State": "fl", "Zip": "334603041", "source": "flna", "CISID": "42089558.0", "COF": null}]}, {"__class__": "tuple", "__value__": [{"Name": "jones bp", "Address": "801 peachtree st", "City": "louisville", "State": "ga", "Zip": "304341449", "source": "flna", "CISID": "1169239.0", "COF": null}, {"Name": "haddens iga - louisv", "Address": "823 peachtree st", "City": "louisville", "State": "ga", "Zip": "304341449", "source": "flna", "CISID": "1724189.0", "COF": null}]}, {"__class__": "tuple", "__value__": [{"Name": "camden exxon", "Address": "210 w main st", "City": "camden", "State": "tn", "Zip": "383201609", "source": "flna", "CISID": "42069017.0", "COF": null}, {"Name": "cashsaver", "Address": "204 w main st", "City": "camden", "State": "tn", "Zip": "383201609", "source": "flna", "CISID": "42088589.0", "COF": null}]}, {"__class__": "tuple", "__value__": [{"Name": "dollar tree 5267", "Address": "1250 s tamiami trl", "City": "osprey", "State": "fl", "Zip": "342299692", "source": "pbna", "CISID": null, "COF": "9929657.0"}, {"Name": "cvs 3126", "Address": "1250 s tamiami trl", "City": "osprey", "State": "fl", "Zip": "342299692", "source": "flna", "CISID": "31677.0", "COF": null}]}, {"__class__": "tuple", "__value__": [{"Name": "hitchcocks markets", "Address": "113 s main st", "City": "trenton", "State": "fl", "Zip": "326933231", "source": "pbna", "CISID": null, "COF": "3807283.0"}, {"Name": "trenton markets inc", "Address": "113 s main st", "City": "trenton", "State": "fl", "Zip": "326933231", "source": "flna", "CISID": "42287150.0", "COF": null}]}, {"__class__": "tuple", "__value__": [{"Name": "lowes 1842", "Address": "8054 philips hwy", "City": "jacksonville", "State": "fl", "Zip": "322567406", "source": "pbna", "CISID": null, "COF": "7650196.0"}, {"Name": "bjs wholesale club 171", "Address": "8046 philips hwy", "City": "jacksonville", "State": "fl", "Zip": "322567406", "source": "pbna", "CISID": null, "COF": "7098463.0"}]}, {"__class__": "tuple", "__value__": [{"Name": "dollar tree 1520", "Address": "865 e bloomingdale ave", "City": "brandon", "State": "fl", "Zip": "335118113", "source": "pbna", "CISID": null, "COF": "7303541.0"}, {"Name": "cvs 3664", "Address": "865 e bloomingdale ave", "City": "brandon", "State": "fl", "Zip": "335118113", "source": "flna", "CISID": "257681.0", "COF": null}]}, {"__class__": "tuple", "__value__": [{"Name": "el ranchito mexican store", "Address": "4077 lake worth rd", "City": "lake worth", "State": "fl", "Zip": "334613924", "source": "pbna", "CISID": null, "COF": "3531446.0"}, {"Name": "el rey liquors", "Address": "4053 lake worth rd", "City": "palm springs", "State": "fl", "Zip": "334613924", "source": "flna", "CISID": "42266434.0", "COF": null}]}, {"__class__": "tuple", "__value__": [{"Name": "pizza hut 026566", "Address": "2153 americana blvd", "City": "orlando", "State": "fl", "Zip": "328392174", "source": "pbna", "CISID": null, "COF": "7674180.0"}, {"Name": "roses 548", "Address": "2103 americana blvd", "City": "orlando", "State": "fl", "Zip": "328392174", "source": "flna", "CISID": "42080197.0", "COF": null}]}, {"__class__": "tuple", "__value__": [{"Name": "friendly market", "Address": "6101 s orange ave ste a", "City": "orlando", "State": "fl", "Zip": "328095122", "source": "pbna", "CISID": null, "COF": "3527201.0"}, {"Name": "rays deli", "Address": "6101 s orange ave", "City": "orlando", "State": "fl", "Zip": "328095122", "source": "flna", "CISID": "42225792.0", "COF": null}]}, {"__class__": "tuple", "__value__": [{"Name": "exprezo", "Address": "201 ne 183rd st", "City": "miami", "State": "fl", "Zip": "331794506", "source": "pbna", "CISID": null, "COF": "3630431.0"}, {"Name": "stop and shop", "Address": "201 ne 183rd st", "City": "miami", "State": "fl", "Zip": "331794506", "source": "flna", "CISID": "1429256.0", "COF": null}]}, {"__class__": "tuple", "__value__": [{"Name": "family dollar 01131", "Address": "15940 e highway 40", "City": "silver springs", "State": "fl", "Zip": "344885144", "source": "pbna", "CISID": null, "COF": "7788599.0"}, {"Name": "cvs 3395", "Address": "15928 e highway 40", "City": "silver springs", "State": "fl", "Zip": "344885144", "source": "flna", "CISID": "242808.0", "COF": null}]}, {"__class__": "tuple", "__value__": [{"Name": "cvs 3310 vendor a923", "Address": "7210 w atlantic blvd", "City": "margate", "State": "fl", "Zip": "330634236", "source": "pbna", "CISID": null, "COF": "9353492.0"}, {"Name": "publix 0214", "Address": "7230 w atlantic blvd", "City": "margate", "State": "fl", "Zip": "330634236", "source": "pbna", "CISID": null, "COF": "9353494.0"}]}, {"__class__": "tuple", "__value__": [{"Name": "shands uf opus cafe cancer hospital", "Address": "1515 sw archer rd", "City": "gainesville", "State": "fl", "Zip": "326081134", "source": "pbna", "CISID": null, "COF": "7671954.0"}, {"Name": "shands uf heart house staff affairs", "Address": "1515 sw archer rd rm ubg648", "City": "gainesville", "State": "fl", "Zip": "326081134", "source": "pbna", "CISID": null, "COF": "3702221.0"}]}, {"__class__": "tuple", "__value__": [{"Name": "abc liq 051", "Address": "14025 biscayne blvd", "City": "north miami beach", "State": "fl", "Zip": "331811629", "source": "pbna", "CISID": null, "COF": "121009.0"}, {"Name": "target 1038 v1137590", "Address": "14075 biscayne blvd", "City": "north miami beach", "State": "fl", "Zip": "331811629", "source": "pbna", "CISID": null, "COF": "2954257.0"}]}, {"__class__": "tuple", "__value__": [{"Name": "walgreens 07010", "Address": "2110 e state road 60", "City": "valrico", "State": "fl", "Zip": "335943701", "source": "pbna", "CISID": null, "COF": "5415462.0"}, {"Name": "ss shell", "Address": "2104 e state road 60", "City": "valrico", "State": "fl", "Zip": "335943701", "source": "flna", "CISID": "2484285.0", "COF": null}]}, {"__class__": "tuple", "__value__": [{"Name": "courtyard ft myers", "Address": "10050 gulf center dr", "City": "fort myers", "State": "fl", "Zip": "339138961", "source": "pbna", "CISID": null, "COF": "9683399.0"}, {"Name": "costco 0621", "Address": "10088 gulf center dr", "City": "fort myers", "State": "fl", "Zip": "339138961", "source": "pbna", "CISID": null, "COF": "7195189.0"}]}, {"__class__": "tuple", "__value__": [{"Name": "walgreens 4804", "Address": "1661 nw saint lucie west blvd", "City": "port st lucie", "State": "fl", "Zip": "349862106", "source": "flna", "CISID": "1858240.0", "COF": null}, {"Name": "walmart sc imp 3527", "Address": "1675 nw saint lucie west blvd", "City": "port saint lucie", "State": "fl", "Zip": "349862106", "source": "flna", "CISID": "2106254.0", "COF": null}]}, {"__class__": "tuple", "__value__": [{"Name": "papa johns pizza 3229", "Address": "13190 us highway 301 s", "City": "riverview", "State": "fl", "Zip": "335787410", "source": "pbna", "CISID": null, "COF": "7782788.0"}, {"Name": "publix 1032", "Address": "13154 us highway 301 s", "City": "riverview", "State": "fl", "Zip": "335787410", "source": "flna", "CISID": "2213689.0", "COF": null}]}, {"__class__": "tuple", "__value__": [{"Name": "lowes 2362", "Address": "10070 estero town commons pl", "City": "estero", "State": "fl", "Zip": "339283488", "source": "pbna", "CISID": null, "COF": "7650883.0"}, {"Name": "dollar tree 6344", "Address": "10070 estero town commons pl", "City": "estero", "State": "fl", "Zip": "339283488", "source": "flna", "CISID": "42226180.0", "COF": null}]}, {"__class__": "tuple", "__value__": [{"Name": "circle k 2704881", "Address": "7050 seminole pratt whitney rd", "City": "loxahatchee", "State": "fl", "Zip": "334703474", "source": "pbna", "CISID": null, "COF": "3344372.0"}, {"Name": "publix 851", "Address": "7050 seminole pratt whitney rd", "City": "loxahatchee", "State": "fl", "Zip": "334703474", "source": "flna", "CISID": "2088026.0", "COF": null}]}, {"__class__": "tuple", "__value__": [{"Name": "millers c store", "Address": "3100 miller ave", "City": "lake placid", "State": "fl", "Zip": "338525140", "source": "pbna", "CISID": null, "COF": "9644161.0"}, {"Name": "c store food mart (i", "Address": "3100 miller ave", "City": "lake placid", "State": "fl", "Zip": "338525140", "source": "flna", "CISID": "2515073.0", "COF": null}]}, {"__class__": "tuple", "__value__": [{"Name": "chevron glades", "Address": "690 glades rd", "City": "boca raton", "State": "fl", "Zip": "334316414", "source": "pbna", "CISID": null, "COF": "9428419.0"}, {"Name": "cvs 3275", "Address": "650 glades rd", "City": "boca raton", "State": "fl", "Zip": "334316414", "source": "flna", "CISID": "31700.0", "COF": null}]}, {"__class__": "tuple", "__value__": [{"Name": "bp hartwig mobil", "Address": "8675 placida rd", "City": "placida", "State": "fl", "Zip": "339462428", "source": "pbna", "CISID": null, "COF": "2997294.0"}, {"Name": "barracuda bills (mob", "Address": "8675 placida rd", "City": "placida", "State": "fl", "Zip": "339462428", "source": "flna", "CISID": "1767484.0", "COF": null}]}, {"__class__": "tuple", "__value__": [{"Name": "farmer food store", "Address": "15061 s jog rd", "City": "delray beach", "State": "fl", "Zip": "334461219", "source": "flna", "CISID": "1217491.0", "COF": null}, {"Name": "walgreens", "Address": "15055 s jog rd", "City": "delray beach", "State": "fl", "Zip": "334461219", "source": "flna", "CISID": "42200963.0", "COF": null}]}, {"__class__": "tuple", "__value__": [{"Name": "bp bonita", "Address": "27998 oakland dr", "City": "bonita springs", "State": "fl", "Zip": "341356229", "source": "pbna", "CISID": null, "COF": "7656516.0"}, {"Name": "oan food mart", "Address": "27998 oakland dr", "City": "bonita springs", "State": "fl", "Zip": "341356229", "source": "flna", "CISID": "2307490.0", "COF": null}]}], "match": [{"__class__": "tuple", "__value__": [{"Name": "dollar general 10484", "Address": "2628 17th st", "City": "sarasota", "State": "fl", "Zip": "342347830", "source": "pbna", "CISID": null, "COF": "7165402.0"}, {"Name": "dollar general 10484", "Address": "2628 17th st", "City": "sarasota", "State": "fl", "Zip": "342347830", "source": "flna", "CISID": "1711794.0", "COF": null}]}, {"__class__": "tuple", "__value__": [{"Name": "winn-dixie 2278", "Address": "1401 s hiawassee rd", "City": "orlando", "State": "fl", "Zip": "328355715", "source": "pbna", "CISID": null, "COF": "7062094.0"}, {"Name": "winn-dixie 2278", "Address": "1401 s hiawassee rd", "City": "orlando", "State": "fl", "Zip": "328355715", "source": "flna", "CISID": "1164462.0", "COF": null}]}, {"__class__": "tuple", "__value__": [{"Name": "publix 1280", "Address": "7950 dani dr", "City": "fort myers", "State": "fl", "Zip": "339668012", "source": "pbna", "CISID": null, "COF": "7669276.0"}, {"Name": "publix 1280", "Address": "7950 dani dr ste 200", "City": "fort myers", "State": "fl", "Zip": "339668012", "source": "flna", "CISID": "2455748.0", "COF": null}]}, {"__class__": "tuple", "__value__": [{"Name": "save-a-lot 156", "Address": "725 w dr martin luther king jr blvd", "City": "seffner", "State": "fl", "Zip": "335844533", "source": "pbna", "CISID": null, "COF": "3534824.0"}, {"Name": "save-a-lot 156", "Address": "729 w dr martin luther king jr blvd", "City": "seffner", "State": "fl", "Zip": "335844533", "source": "flna", "CISID": "42202845.0", "COF": null}]}, {"__class__": "tuple", "__value__": [{"Name": "express mart", "Address": "3650 us highway 27 n", "City": "sebring", "State": "fl", "Zip": "338701691", "source": "pbna", "CISID": null, "COF": "7341544.0"}, {"Name": "express mart", "Address": "3610 us highway 27 n", "City": "sebring", "State": "fl", "Zip": "338701691", "source": "flna", "CISID": "2409633.0", "COF": null}]}, {"__class__": "tuple", "__value__": [{"Name": "dollar general 13221", "Address": "4970 commerce ave", "City": "de leon springs", "State": "fl", "Zip": "32130", "source": "pbna", "CISID": null, "COF": "9757990.0"}, {"Name": "dollar general 13221", "Address": "4970 commerce ave", "City": "de leon springs", "State": "fl", "Zip": "321303139", "source": "flna", "CISID": "42006969.0", "COF": null}]}, {"__class__": "tuple", "__value__": [{"Name": "dollar tree 7835", "Address": "501 n beneva rd", "City": "sarasota", "State": "fl", "Zip": "342321309", "source": "pbna", "CISID": null, "COF": "3842602.0"}, {"Name": "dollar tree 7835", "Address": "501 n beneva rd", "City": "sarasota", "State": "fl", "Zip": "342321308", "source": "flna", "CISID": "42345937.0", "COF": null}]}, {"__class__": "tuple", "__value__": [{"Name": "main street food mart", "Address": "5912 main st", "City": "new port richey", "State": "fl", "Zip": "346522716", "source": "pbna", "CISID": null, "COF": "3736067.0"}, {"Name": "main street food mar", "Address": "5912 main st", "City": "new port richey", "State": "fl", "Zip": "346522716", "source": "flna", "CISID": "1945825.0", "COF": null}]}, {"__class__": "tuple", "__value__": [{"Name": "palm lakes liquors", "Address": "6846 w atlantic blvd", "City": "margate", "State": "fl", "Zip": "330635045", "source": "pbna", "CISID": null, "COF": "3649304.0"}, {"Name": "palm lakes liquor", "Address": "6846 w atlantic blvd", "City": "margate", "State": "fl", "Zip": "330635045", "source": "flna", "CISID": "2501355.0", "COF": null}]}, {"__class__": "tuple", "__value__": [{"Name": "publix 1342", "Address": "1101 8th ave w", "City": "palmetto", "State": "fl", "Zip": "342213809", "source": "pbna", "CISID": null, "COF": "7343381.0"}, {"Name": "publix 1342", "Address": "1101 8th w", "City": "palmetto", "State": "fl", "Zip": "34221", "source": "flna", "CISID": "2036099.0", "COF": null}]}, {"__class__": "tuple", "__value__": [{"Name": "winn-dixie 345", "Address": "1021 s federal hwy", "City": "deerfield beach", "State": "fl", "Zip": "33441", "source": "pbna", "CISID": null, "COF": "9350337.0"}, {"Name": "winn-dixie 345", "Address": "1019 s federal hwy", "City": "deerfield beach", "State": "fl", "Zip": "334417032", "source": "flna", "CISID": "157502.0", "COF": null}]}, {"__class__": "tuple", "__value__": [{"Name": "winn-dixie 2495", "Address": "11230 e dr martin luther king jr blvd", "City": "seffner", "State": "fl", "Zip": "335848359", "source": "pbna", "CISID": null, "COF": "3387446.0"}, {"Name": "winn-dixie 2495", "Address": "11200 e dr martin luther king jr blvd", "City": "seffner", "State": "fl", "Zip": "335848348", "source": "flna", "CISID": "42115262.0", "COF": null}]}, {"__class__": "tuple", "__value__": [{"Name": "habana food mart", "Address": "2735 w dr martin luther king jr blv", "City": "tampa", "State": "fl", "Zip": "336076303", "source": "pbna", "CISID": null, "COF": "3474438.0"}, {"Name": "habana foods", "Address": "2735 w dr martin luther king jr blvd", "City": "tampa", "State": "fl", "Zip": "336076303", "source": "flna", "CISID": "42263433.0", "COF": null}]}, {"__class__": "tuple", "__value__": [{"Name": "caribbean souls of indiantown", "Address": "15217 sw madison ave", "City": "indiantown", "State": "fl", "Zip": "349563347", "source": "pbna", "CISID": null, "COF": "3487371.0"}, {"Name": "caribbean souls", "Address": "15227 sw madison ave", "City": "indiantown", "State": "fl", "Zip": "349563347", "source": "flna", "CISID": "1760384.0", "COF": null}]}, {"__class__": "tuple", "__value__": [{"Name": "walmart nhm 3104", "Address": "1109 s military trl", "City": "deerfield beach", "State": "fl", "Zip": "334427645", "source": "pbna", "CISID": null, "COF": "9920748.0"}, {"Name": "walmart nm 3104", "Address": "1101 s military trl", "City": "deerfield beach", "State": "fl", "Zip": "334427645", "source": "flna", "CISID": "42069124.0", "COF": null}]}, {"__class__": "tuple", "__value__": [{"Name": "publix 1159 greenwise", "Address": "21230 saint andrews blvd", "City": "boca raton", "State": "fl", "Zip": "334332435", "source": "pbna", "CISID": null, "COF": "9349136.0"}, {"Name": "publix 1159", "Address": "21230 saint andrews blvd", "City": "boca raton", "State": "fl", "Zip": "334332498", "source": "flna", "CISID": "2402016.0", "COF": null}]}, {"__class__": "tuple", "__value__": [{"Name": "san carlos grocery", "Address": "18011 s tamiami trl unit c5", "City": "fort myers", "State": "fl", "Zip": "339084697", "source": "pbna", "CISID": null, "COF": "9630416.0"}, {"Name": "san carlos groc(ibc)", "Address": "18011 s tamiami trl", "City": "fort myers", "State": "fl", "Zip": "339084697", "source": "flna", "CISID": "2485745.0", "COF": null}]}, {"__class__": "tuple", "__value__": [{"Name": "bethune village", "Address": "835 mary mcleod bethune blvd", "City": "daytona beach", "State": "fl", "Zip": "321143068", "source": "pbna", "CISID": null, "COF": "79621.0"}, {"Name": "bethune village mark", "Address": "835 dr mary mcleod bethune blvd", "City": "daytona beach", "State": "fl", "Zip": "321143068", "source": "flna", "CISID": "1781524.0", "COF": null}]}, {"__class__": "tuple", "__value__": [{"Name": "chevron", "Address": "1790 w hillsboro blvd", "City": "deerfield beach", "State": "fl", "Zip": "334421570", "source": "pbna", "CISID": null, "COF": "9923464.0"}, {"Name": "chevron 357", "Address": "1790 w hillsboro blvd", "City": "deerfield bch", "State": "fl", "Zip": "334421468", "source": "flna", "CISID": "42056916.0", "COF": null}]}, {"__class__": "tuple", "__value__": [{"Name": "winn-dixie liquor store 0761", "Address": "3280 tamiami trl ste 38", "City": "port charlotte", "State": "fl", "Zip": "339528086", "source": "pbna", "CISID": null, "COF": "3510756.0"}, {"Name": "winn-dixie 736", "Address": "3280 tamiami trl", "City": "port charlotte", "State": "fl", "Zip": "339528053", "source": "flna", "CISID": "1939546.0", "COF": null}]}, {"__class__": "tuple", "__value__": [{"Name": "walmart fuel ctr 419", "Address": "902 lee rd", "City": "orlando", "State": "fl", "Zip": "328105561", "source": "flna", "CISID": "42230007.0", "COF": null}, {"Name": "walmart nm imp 4197", "Address": "902 lee rd", "City": "orlando", "State": "fl", "Zip": "328105561", "source": "flna", "CISID": "42230390.0", "COF": null}]}, {"__class__": "tuple", "__value__": [{"Name": "sunshine food mart", "Address": "901 dr martin luther king jr st s", "City": "st petersburg", "State": "fl", "Zip": "337052101", "source": "pbna", "CISID": null, "COF": "7661934.0"}, {"Name": "sunshine store", "Address": "901 martin luther king st s", "City": "st petersburg", "State": "fl", "Zip": "337052101", "source": "flna", "CISID": "42247353.0", "COF": null}]}, {"__class__": "tuple", "__value__": [{"Name": "tl conv store", "Address": "901 big tree rd", "City": "south daytona", "State": "fl", "Zip": "321192517", "source": "pbna", "CISID": null, "COF": "83937.0"}, {"Name": "t l convenience", "Address": "901 big tree rd", "City": "south daytona", "State": "fl", "Zip": "321192517", "source": "flna", "CISID": "1590575.0", "COF": null}]}, {"__class__": "tuple", "__value__": [{"Name": "marathon swiftys gas", "Address": "680 e main st", "City": "pahokee", "State": "fl", "Zip": "334761404", "source": "pbna", "CISID": null, "COF": "9354025.0"}, {"Name": "swiftys", "Address": "680 e main st", "City": "pahokee", "State": "fl", "Zip": "334761404", "source": "flna", "CISID": "1556580.0", "COF": null}]}, {"__class__": "tuple", "__value__": [{"Name": "key foods dba festival food 4218", "Address": "7346 w commercial blvd", "City": "lauderhill", "State": "fl", "Zip": "333192128", "source": "pbna", "CISID": null, "COF": "3775744.0"}, {"Name": "festival food market", "Address": "7346 w commercial blvd", "City": "lauderhill", "State": "fl", "Zip": "333192128", "source": "flna", "CISID": "42232264.0", "COF": null}]}, {"__class__": "tuple", "__value__": [{"Name": "target 0968 v1137590", "Address": "7795 bird rd", "City": "miami", "State": "fl", "Zip": "331553546", "source": "pbna", "CISID": null, "COF": "2007013.0"}, {"Name": "target dept 203968", "Address": "7795 bird rd", "City": "miami", "State": "fl", "Zip": "331553546", "source": "pbna", "CISID": null, "COF": "3894115.0"}]}, {"__class__": "tuple", "__value__": [{"Name": "rally main street", "Address": "1625 main st", "City": "dunedin", "State": "fl", "Zip": "346984759", "source": "pbna", "CISID": null, "COF": "3857444.0"}, {"Name": "main street rally", "Address": "1625 main st", "City": "dunedin", "State": "fl", "Zip": "346984759", "source": "flna", "CISID": "1081323.0", "COF": null}]}, {"__class__": "tuple", "__value__": [{"Name": "boulevard deli", "Address": "6490 seminole blvd", "City": "seminole", "State": "fl", "Zip": "337726339", "source": "pbna", "CISID": null, "COF": "94289.0"}, {"Name": "blvd deli", "Address": "6490 seminole blvd", "City": "seminole", "State": "fl", "Zip": "337726339", "source": "flna", "CISID": "1490334.0", "COF": null}]}, {"__class__": "tuple", "__value__": [{"Name": "adventhealth orlando cafeteria", "Address": "601 e rollins st", "City": "orlando", "State": "fl", "Zip": "328031248", "source": "pbna", "CISID": null, "COF": "7185005.0"}, {"Name": "adventhealth patient srvcs area", "Address": "601 e rollins st", "City": "orlando", "State": "fl", "Zip": "328031248", "source": "pbna", "CISID": null, "COF": "7197124.0"}]}, {"__class__": "tuple", "__value__": [{"Name": "target dept 203 2032", "Address": "3770 n goldenrod rd", "City": "winter park", "State": "fl", "Zip": "327928832", "source": "pbna", "CISID": null, "COF": "3893880.0"}, {"Name": "target 2032 vendor 1137590", "Address": "3770 n goldenrod rd", "City": "winter park", "State": "fl", "Zip": "327928832", "source": "pbna", "CISID": null, "COF": "7079402.0"}]}, {"__class__": "tuple", "__value__": [{"Name": "walmart sc 0817", "Address": "4444 w irlo bronson hwy", "City": "kissimmee", "State": "fl", "Zip": "347465315", "source": "pbna", "CISID": null, "COF": "128519.0"}, {"Name": "walmart sc 817", "Address": "4444 w vine st", "City": "kissimmee", "State": "fl", "Zip": "347465315", "source": "flna", "CISID": "1675432.0", "COF": null}]}, {"__class__": "tuple", "__value__": [{"Name": "a1 discount store", "Address": "825 barton blvd", "City": "rockledge", "State": "fl", "Zip": "329553127", "source": "pbna", "CISID": null, "COF": "7345504.0"}, {"Name": "a 1 food store", "Address": "825 barton blvd", "City": "rockledge", "State": "fl", "Zip": "329553127", "source": "flna", "CISID": "1157480.0", "COF": null}]}, {"__class__": "tuple", "__value__": [{"Name": "target 0687-vendor 1137590", "Address": "3970 sw archer rd", "City": "gainesville", "State": "fl", "Zip": "326082342", "source": "pbna", "CISID": null, "COF": "122690.0"}, {"Name": "target dept 203 0687", "Address": "3970 sw archer rd", "City": "gainesville", "State": "fl", "Zip": "326082342", "source": "pbna", "CISID": null, "COF": "3893806.0"}]}, {"__class__": "tuple", "__value__": [{"Name": "dollar general 13388", "Address": "21850 u.s. 441", "City": "mt dora", "State": "fl", "Zip": "32757", "source": "pbna", "CISID": null, "COF": "9813059.0"}, {"Name": "dollar general 13388", "Address": "21850 us highway 441", "City": "mount dora", "State": "fl", "Zip": "327579775", "source": "flna", "CISID": "42039944.0", "COF": null}]}, {"__class__": "tuple", "__value__": [{"Name": "food mart", "Address": "660 orange ave", "City": "winter park", "State": "fl", "Zip": "327894702", "source": "pbna", "CISID": null, "COF": "5426373.0"}, {"Name": "winter park food mar", "Address": "660 orange ave", "City": "winter park", "State": "fl", "Zip": "327894702", "source": "flna", "CISID": "1916215.0", "COF": null}]}, {"__class__": "tuple", "__value__": [{"Name": "7-eleven 34767", "Address": "901 florida 436", "City": "altamonte springs", "State": "fl", "Zip": "32714", "source": "pbna", "CISID": null, "COF": "9647694.0"}, {"Name": "7-eleven 34767", "Address": "901 w state road 436", "City": "altamonte springs", "State": "fl", "Zip": "327142901", "source": "flna", "CISID": "2507535.0", "COF": null}]}, {"__class__": "tuple", "__value__": [{"Name": "stop shop 77", "Address": "5724 royal palm blvd", "City": "margate", "State": "fl", "Zip": "330632242", "source": "pbna", "CISID": null, "COF": "3646105.0"}, {"Name": "stop and shop", "Address": "5724 royal palm blvd", "City": "margate", "State": "fl", "Zip": "330632242", "source": "flna", "CISID": "2099331.0", "COF": null}]}, {"__class__": "tuple", "__value__": [{"Name": "ms food market", "Address": "201 n a st", "City": "lake worth", "State": "fl", "Zip": "334603221", "source": "pbna", "CISID": null, "COF": "9352787.0"}, {"Name": "4 stop food mart", "Address": "201 n a st", "City": "lake worth", "State": "fl", "Zip": "334603221", "source": "flna", "CISID": "42274168.0", "COF": null}]}, {"__class__": "tuple", "__value__": [{"Name": "target sc 2067", "Address": "10201 hagen ranch rd", "City": "boynton beach", "State": "fl", "Zip": "334373758", "source": "pbna", "CISID": null, "COF": "9361574.0"}, {"Name": "super target 2067", "Address": "10201 hagen ranch rd", "City": "boynton beach", "State": "fl", "Zip": "334373758", "source": "flna", "CISID": "2225766.0", "COF": null}]}, {"__class__": "tuple", "__value__": [{"Name": "us shell", "Address": "1800 34th st s", "City": "saint petersburg", "State": "fl", "Zip": "337112837", "source": "pbna", "CISID": null, "COF": "7197144.0"}, {"Name": "shell", "Address": "1800 34th st s", "City": "st petersburg", "State": "fl", "Zip": "337112837", "source": "flna", "CISID": "1289043.0", "COF": null}]}, {"__class__": "tuple", "__value__": [{"Name": "lion country safari/koa", "Address": "2003 lion country safari rd", "City": "loxahatchee", "State": "fl", "Zip": "334703977", "source": "pbna", "CISID": null, "COF": "9899680.0"}, {"Name": "ssa services lion country restauran", "Address": "2003 lion country safari rd", "City": "loxahatchee", "State": "fl", "Zip": "334703977", "source": "pbna", "CISID": null, "COF": "3867531.0"}]}, {"__class__": "tuple", "__value__": [{"Name": "family dollar 10021", "Address": "7270-7350 us hwy 27", "City": "ft white", "State": "fl", "Zip": "32038", "source": "pbna", "CISID": null, "COF": "9818773.0"}, {"Name": "family dollar 10021", "Address": "7323 sw us highway 27", "City": "fort white", "State": "fl", "Zip": "320383393", "source": "flna", "CISID": "42038523.0", "COF": null}]}, {"__class__": "tuple", "__value__": [{"Name": "circle k 2722258", "Address": "1717 hwy 17 s", "City": "barberville", "State": "fl", "Zip": "32105", "source": "pbna", "CISID": null, "COF": "83817.0"}, {"Name": "circle k 2722258", "Address": "1717 n us hwy 17", "City": "peirson", "State": "fl", "Zip": "32105", "source": "flna", "CISID": "42165335.0", "COF": null}]}, {"__class__": "tuple", "__value__": [{"Name": "fiesta food market", "Address": "1015 hwy 29 n", "City": "labelle", "State": "fl", "Zip": "33935", "source": "pbna", "CISID": null, "COF": "7068331.0"}, {"Name": "fiesta food market", "Address": "1250 state road 29 s", "City": "labelle", "State": "fl", "Zip": "339359162", "source": "pbna", "CISID": null, "COF": "5424782.0"}]}, {"__class__": "tuple", "__value__": [{"Name": "dollar tree 5994", "Address": "860 w state road 434", "City": "longwood", "State": "fl", "Zip": "327505102", "source": "pbna", "CISID": null, "COF": "3510232.0"}, {"Name": "dollar tree 5994", "Address": "872 e sr 434", "City": "longwood", "State": "fl", "Zip": "327505307", "source": "flna", "CISID": "42188443.0", "COF": null}]}, {"__class__": "tuple", "__value__": [{"Name": "ara uf sun terr chick fila", "Address": "1600 sw archer rd", "City": "gainesville", "State": "fl", "Zip": "326110001", "source": "pbna", "CISID": null, "COF": "7078953.0"}, {"Name": "ara uf sun terr einsteins (shands", "Address": "1600 sw archer rd", "City": "gainesville", "State": "fl", "Zip": "326113003", "source": "pbna", "CISID": null, "COF": "7078954.0"}]}, {"__class__": "tuple", "__value__": [{"Name": "the six hearts corp", "Address": "2730 sheridan st", "City": "hollywood", "State": "fl", "Zip": "330201802", "source": "pbna", "CISID": null, "COF": "3819641.0"}, {"Name": "the 6th hardcore", "Address": "2730 sheridan st", "City": "hollywood", "State": "fl", "Zip": "330201802", "source": "flna", "CISID": "42129712.0", "COF": null}]}, {"__class__": "tuple", "__value__": [{"Name": "gift shop at broward general", "Address": "1600 s andrews ave", "City": "fort lauderdale", "State": "fl", "Zip": "333162510", "source": "pbna", "CISID": null, "COF": "9491384.0"}, {"Name": "broward general hospital", "Address": "1600 s andrews ave", "City": "fort lauderdale", "State": "fl", "Zip": "333162510", "source": "pbna", "CISID": null, "COF": "9350946.0"}]}, {"__class__": "tuple", "__value__": [{"Name": "shell mart 3609", "Address": "3609 us highway 441 se", "City": "okeechobee", "State": "fl", "Zip": "349747139", "source": "pbna", "CISID": null, "COF": "3778196.0"}, {"Name": "shell mart 3609", "Address": "3609 us highway 441 n", "City": "okeechobee", "State": "fl", "Zip": "349721712", "source": "flna", "CISID": "42117018.0", "COF": null}]}, {"__class__": "tuple", "__value__": [{"Name": "cvs 03960", "Address": "3765 ulmerton rd", "City": "largo", "State": "fl", "Zip": "33770", "source": "pbna", "CISID": null, "COF": "5696677.0"}, {"Name": "cvs 3960", "Address": "3765 ulmerton rd", "City": "clearwater", "State": "fl", "Zip": "337624209", "source": "flna", "CISID": "1137181.0", "COF": null}]}, {"__class__": "tuple", "__value__": [{"Name": "belcher food mart", "Address": "200 belcher rd n", "City": "largo", "State": "fl", "Zip": "337711911", "source": "pbna", "CISID": null, "COF": "3449705.0"}, {"Name": "belcher food mart", "Address": "12855 belcher rd s", "City": "largo", "State": "fl", "Zip": "337731657", "source": "pbna", "CISID": null, "COF": "7346960.0"}]}, {"__class__": "tuple", "__value__": [{"Name": "target dept 203 1966", "Address": "1201 wp ball blvd", "City": "sanford", "State": "fl", "Zip": "327717204", "source": "pbna", "CISID": null, "COF": "3893878.0"}, {"Name": "super target 1966", "Address": "1201 wp ball blvd", "City": "sanford", "State": "fl", "Zip": "327717204", "source": "flna", "CISID": "2186929.0", "COF": null}]}, {"__class__": "tuple", "__value__": [{"Name": "target dept 203 2364", "Address": "5100 e state highway 100", "City": "palm coast", "State": "fl", "Zip": "321642365", "source": "pbna", "CISID": null, "COF": "3893896.0"}, {"Name": "super target 2364", "Address": "5100 e state highway 100", "City": "palm coast", "State": "fl", "Zip": "321642365", "source": "flna", "CISID": "2385016.0", "COF": null}]}, {"__class__": "tuple", "__value__": [{"Name": "emanuel shell", "Address": "10001 n dale mabry hwy", "City": "tampa", "State": "fl", "Zip": "336184409", "source": "pbna", "CISID": null, "COF": "3876562.0"}, {"Name": "carrollwood shell", "Address": "10001 n dale mabry hwy", "City": "tampa", "State": "fl", "Zip": "336184409", "source": "flna", "CISID": "42294864.0", "COF": null}]}, {"__class__": "tuple", "__value__": [{"Name": "swap shop - big chill of swap shop", "Address": "3291 w sunrise blvd", "City": "fort lauderdale", "State": "fl", "Zip": "333115603", "source": "pbna", "CISID": null, "COF": "9637876.0"}, {"Name": "swap shop cocteles y frutas pacheco", "Address": "3291 w sunrise blvd", "City": "fort lauderdale", "State": "fl", "Zip": "333115603", "source": "pbna", "CISID": null, "COF": "3717981.0"}]}, {"__class__": "tuple", "__value__": [{"Name": "shell deerfield", "Address": "301 w hillsboro blvd", "City": "deerfield beach", "State": "fl", "Zip": "334411601", "source": "pbna", "CISID": null, "COF": "3722384.0"}, {"Name": "deerfield shell", "Address": "301 w hillsboro blvd", "City": "deerfield beach", "State": "fl", "Zip": "334411601", "source": "flna", "CISID": "42284632.0", "COF": null}]}, {"__class__": "tuple", "__value__": [{"Name": "westshore pizza/ causeway", "Address": "10309 causeway blvd", "City": "tampa", "State": "fl", "Zip": "336196676", "source": "pbna", "CISID": null, "COF": "7318917.0"}, {"Name": "causeway bp", "Address": "10323 causeway blvd", "City": "tampa", "State": "fl", "Zip": "336196676", "source": "flna", "CISID": "2491360.0", "COF": null}]}, {"__class__": "tuple", "__value__": [{"Name": "texaco hollywood", "Address": "5611 hollywood blvd", "City": "hollywood", "State": "fl", "Zip": "330216325", "source": "pbna", "CISID": null, "COF": "9452206.0"}, {"Name": "hollywood chevron", "Address": "5611 hollywood blvd", "City": "hollywood", "State": "fl", "Zip": "330216325", "source": "flna", "CISID": "42283942.0", "COF": null}]}, {"__class__": "tuple", "__value__": [{"Name": "handy foods 0085", "Address": "hwy 78 nobles rd", "City": "labelle", "State": "fl", "Zip": "33935", "source": "pbna", "CISID": null, "COF": "103123.0"}, {"Name": "handy food 58", "Address": "main st", "City": "labelle", "State": "fl", "Zip": "33935", "source": "flna", "CISID": "1265951.0", "COF": null}]}, {"__class__": "tuple", "__value__": [{"Name": "walmart 110 service station", "Address": "16313 new independence pkwy", "City": "winter garden", "State": "fl", "Zip": "347878113", "source": "pbna", "CISID": null, "COF": "3617885.0"}, {"Name": "walmart fuel ctr imp", "Address": "16313 new independence pkwy", "City": "winter garden", "State": "fl", "Zip": "347878113", "source": "flna", "CISID": "42237317.0", "COF": null}]}, {"__class__": "tuple", "__value__": [{"Name": "17501 chevron", "Address": "17501 pines blvd", "City": "pembroke pines", "State": "fl", "Zip": "330291512", "source": "pbna", "CISID": null, "COF": "9925918.0"}, {"Name": "chevron", "Address": "17501 pines blvd", "City": "pembroke pines", "State": "fl", "Zip": "330291512", "source": "flna", "CISID": "42074281.0", "COF": null}]}, {"__class__": "tuple", "__value__": [{"Name": "chevron", "Address": "6984 pembroke rd", "City": "pembroke pines", "State": "fl", "Zip": "330232676", "source": "pbna", "CISID": null, "COF": "3757151.0"}, {"Name": "pines chevron", "Address": "6984 pembroke rd", "City": "pembroke pines", "State": "fl", "Zip": "330232676", "source": "flna", "CISID": "42347795.0", "COF": null}]}, {"__class__": "tuple", "__value__": [{"Name": "kwik stop food store", "Address": "4935 oleander ave", "City": "fort pierce", "State": "fl", "Zip": "349824213", "source": "pbna", "CISID": null, "COF": "3572980.0"}, {"Name": "midway kwik stop inc", "Address": "4935 oleander ave", "City": "fort pierce", "State": "fl", "Zip": "349824213", "source": "flna", "CISID": "42200363.0", "COF": null}]}, {"__class__": "tuple", "__value__": [{"Name": "bp oakland hiatus", "Address": "10901 w oakland park blvd", "City": "sunrise", "State": "fl", "Zip": "333516811", "source": "pbna", "CISID": null, "COF": "3388138.0"}, {"Name": "hiatus bp", "Address": "10901 w oakland park blvd", "City": "sunrise", "State": "fl", "Zip": "333516811", "source": "flna", "CISID": "2331696.0", "COF": null}]}]}